[
    {
        "Altitude(m)": 624790.8065721985,
        "Argument of Periapsis(deg)": 0.0,
        "Eccentricity": 0.0,
        "Inclination(deg)": 60.0,
        "Latitude(deg)": -59.147150486034356,
        "Longitude(deg)": -168.96555623950792,
        "Mean Anomaly(deg)": 278.1818,
        "RAAN(deg)": 5.0,
        "Satellite Name": "Test1 39",
        "Satellite Number": 39,
        "Semi-Major Axis(m)": 6980739.136638005,
        "Time(s)": 0
    },
    {
        "Altitude(m)": 624737.4623004032,
        "Argument of Periapsis(deg)": 0.00010418945913296404,
        "Eccentricity": 0.0,
        "Inclination(deg)": 60.0,
        "Latitude(deg)": -58.994607523581365,
        "Longitude(deg)": -167.84605206598297,
        "Mean Anomaly(deg)": 278.8019061454618,
        "RAAN(deg)": 4.999579950860257,
        "Satellite Name": "Test1 39",
        "Satellite Number": 39,
        "Semi-Major Axis(m)": 6980739.136638005,
        "Time(s)": 10
    }
]